[{"OBJECT_NAME":"VIGORIDE-5","OBJECT_ID":"2023-001AZ","EPOCH":"2026-03-09T17:10:37.609248","MEAN_MOTION":15.53238104,"ECCENTRICITY":0.00050374,"INCLINATION":97.3326,"RA_OF_ASC_NODE":137.4712,"ARG_OF_PERICENTER":140.3032,"MEAN_ANOMALY":219.8591,"EPHEMERIS_TYPE":0,"CLASSIFICATION_TYPE":"U","NORAD_CAT_ID":55056,"ELEMENT_SET_NO":999,"REV_AT_EPOCH":17718,"BSTAR":0.00081503471,"MEAN_MOTION_DOT":0.00051437,"MEAN_MOTION_DDOT":0},{"OBJECT_NAME":"STARLINK-5851","OBJECT_ID":"2023-037AK","EPOCH":"2026-03-09T22:00:01.999584","MEAN_MOTION":15.42862992,"ECCENTRICITY":0.00037818,"INCLINATION":70.0014,"RA_OF_ASC_NODE":280.2352,"ARG_OF_PERICENTER":267.0904,"MEAN_ANOMALY":171.4079,"EPHEMERIS_TYPE":0,"CLASSIFICATION_TYPE":"U","NORAD_CAT_ID":55947,"ELEMENT_SET_NO":999,"REV_AT_EPOCH":574,"BSTAR":0.028609272,"MEAN_MOTION_DOT":0.01383669,"MEAN_MOTION_DDOT":0}]
